CS2                     
1 49262U 21088C   26068.73485932  .00018033  00000+0  56178-3 0  9999
2 49262  97.3928 134.2907 0011637  82.3491 277.9072 15.33255930245263
STARLINK-35196          
1 66007U 25232C   26068.79249760  .00020056  00000+0  68743-3 0  9992
2 66007  53.1586 103.2665 0001502  80.3479 279.7692 15.30200138 23449
